ONEWEB-0545             
1 54647U 22166F   24297.55525589 -.00000126  00000+0 -33696-3 0  9991
2 54647  87.9351   3.8272 0002049 111.9929 248.1423 13.21826755 92498
ONEWEB-0580             
1 54648U 22166G   24297.60414329  .00000043  00000+0  71600-4 0  9991
2 54648  87.9356   3.7957 0001735 114.5507 245.5808 13.21824061 92075
ONEWEB-0582             
1 54649U 22166H   24297.57104030  .00000323  00000+0  75028-3 0  9991
2 54649  87.9354   3.8357 0001527 118.9333 241.1954 13.21823868 92048
ONEWEB-0583             
1 54650U 22166J   24297.58205449 -.00000011  00000+0 -59131-4 0  9994
2 54650  87.9353   3.8318 0001853 101.3851 258.7491 13.21827656 92059
ONEWEB-0584             
1 54651U 22166K   24297.60255766 -.00000230  00000+0 -58935-3 0  9998
2 54651  87.9357   3.7998 0001512 113.6554 246.4739 13.21825519 92049
ONEWEB-0585             
1 54652U 22166L   24297.47639576  .00000070  00000+0  13727-3 0  9999
2 54652  87.9348   3.8366 0001841  97.0044 263.1299 13.21825040 92039
ONEWEB-0586             
1 54653U 22166M   24297.56470903  .00000047  00000+0  82088-4 0  9998
2 54653  87.9354   3.8257 0001826 104.3424 255.7913 13.21825288 92048
ONEWEB-0587             
1 54654U 22166N   24297.42279284  .00000020  00000+0  17051-4 0  9992
2 54654  87.9352   3.8070 0001953  93.0677 267.0680 13.21824796 92641
